[{"OBJECT_NAME":"STARLINK-4384","OBJECT_ID":"2022-084AF","EPOCH":"2026-03-09T17:41:43.247040","MEAN_MOTION":15.05639874,"ECCENTRICITY":0.00012328,"INCLINATION":97.6036,"RA_OF_ASC_NODE":131.3326,"ARG_OF_PERICENTER":70.6402,"MEAN_ANOMALY":289.4958,"EPHEMERIS_TYPE":0,"CLASSIFICATION_TYPE":"U","NORAD_CAT_ID":53218,"ELEMENT_SET_NO":999,"REV_AT_EPOCH":19991,"BSTAR":-5.431446e-6,"MEAN_MOTION_DOT":-1.39e-6,"MEAN_MOTION_DDOT":0},{"OBJECT_NAME":"COSMOS 886 DEB","OBJECT_ID":"1976-126BP","EPOCH":"2026-03-09T09:25:45.501600","MEAN_MOTION":13.48223291,"ECCENTRICITY":0.07109258,"INCLINATION":65.7793,"RA_OF_ASC_NODE":49.267,"ARG_OF_PERICENTER":88.0279,"MEAN_ANOMALY":57.007,"EPHEMERIS_TYPE":0,"CLASSIFICATION_TYPE":"U","NORAD_CAT_ID":14502,"ELEMENT_SET_NO":999,"REV_AT_EPOCH":14461,"BSTAR":0.00098756345,"MEAN_MOTION_DOT":2.959e-5,"MEAN_MOTION_DDOT":0}]
